NORAD_CAT_ID,OBJECT_NAME,OBJECT_TYPE,EPOCH,MEAN_MOTION,ECCENTRICITY,INCLINATION,RA_OF_ASC_NODE,ARG_OF_PERICENTER,MEAN_ANOMALY,BSTAR,MEAN_MOTION_DOT,MEAN_MOTION_DDOT,TLE_LINE0,TLE_LINE1,TLE_LINE2,SEMIMAJOR_AXIS,PERIOD,APOGEE,PERIGEE,DECAYED
51106.0,STARLINK-3176,PAYLOAD,2022-08-25 05:10:10,15.08836133,0.0001658,53.2175,331.2526,53.7397,306.3748,6.272e-06,-1.88e-06,0.0,0 STARLINK-3176,1 51106U 22005C   22237.21540493 -.00000188  00000-0  62720-5 0  9996,2 51106  53.2175 331.2526 0001658  53.7397 306.3748 15.08836133 34864,6917.892,95.438,540.904,538.61,0.0
51106.0,STARLINK-3176,PAYLOAD,2022-08-25 09:56:20,15.08839362,0.000155,53.2176,330.3601,55.5615,304.5523,4.6976e-06,-2.13e-06,0.0,0 STARLINK-3176,1 51106U 22005C   22237.41412272 -.00000213  00000-0  46976-5 0  9995,2 51106  53.2176 330.3601 0001550  55.5615 304.5523 15.08839362 33781,6917.882,95.438,540.82,538.675,0.0
51106.0,STARLINK-3176,PAYLOAD,2022-08-26 09:47:06,15.08840489,0.0001601,53.2175,325.9001,51.6663,308.4473,0.00010908,1.448e-05,0.0,0 STARLINK-3176,1 51106U 22005C   22238.40771769  .00001448  00000-0  10908-3 0  9998,2 51106  53.2175 325.9001 0001601  51.6663 308.4473 15.08840489 35041,6917.879,95.438,540.851,538.636,0.0
51106.0,STARLINK-3176,PAYLOAD,2022-08-26 16:08:39,15.08842371,0.0001621,53.2174,324.7106,52.2184,307.8954,0.00010592,1.398e-05,0.0,0 STARLINK-3176,1 51106U 22005C   22238.67267641  .00001398  00000-0  10592-3 0  9999,2 51106  53.2174 324.7106 0001621  52.2184 307.8954 15.08842371 33979,6917.873000000001,95.437,540.86,538.617,0.0
51106.0,STARLINK-3176,PAYLOAD,2022-08-27 11:13:17,15.08836114,0.0001672,53.2176,321.1428,45.8972,314.2158,1.8206e-05,2e-08,0.0,0 STARLINK-3176,1 51106U 22005C   22239.46756516  .00000002  00000-0  18206-4 0  9993,2 51106  53.2176 321.1428 0001672  45.8972 314.2158 15.08836114 34098,6917.892,95.438,540.914,538.601,0.0
51106.0,STARLINK-3176,PAYLOAD,2022-08-28 04:42:31,15.08845726,0.0001621,53.2174,317.8713,48.267,311.8461,2.3409e-05,8.5e-07,0.0,0 STARLINK-3176,1 51106U 22005C   22240.19619808  .00000085  00000-0  23409-4 0  9999,2 51106  53.2174 317.8713 0001621  48.2670 311.8461 15.08845726 35316,6917.863,95.437,540.849,538.607,0.0
51106.0,STARLINK-3176,PAYLOAD,2022-08-28 12:39:26,15.08849521,0.0001638,53.2174,316.3845,48.1919,311.9213,5.5182e-05,5.9e-06,0.0,0 STARLINK-3176,1 51106U 22005C   22240.52739345  .00000590  00000-0  55182-4 0  9999,2 51106  53.2174 316.3845 0001638  48.1919 311.9213 15.08849521 34254,6917.851,95.437,540.849,538.5830000000002,0.0
51106.0,STARLINK-3176,PAYLOAD,2022-08-28 14:14:49,15.08851484,0.0001635,53.2175,316.0871,46.977,313.1359,4.0096e-05,3.5000000000000016e-06,0.0,0 STARLINK-3176,1 51106U 22005C   22240.59363236  .00000350  00000-0  40096-4 0  9990,2 51106  53.2175 316.0871 0001635  46.9770 313.1359 15.08851484 34266,6917.845,95.437,540.841,538.5790000000002,0.0
51106.0,STARLINK-3176,PAYLOAD,2022-08-29 10:54:51,15.08837855,0.0001679,53.2174,312.2217,45.8479,314.265,3.9078e-05,3.34e-06,0.0,0 STARLINK-3176,1 51106U 22005C   22241.45475908  .00000334  00000-0  39078-4 0  9996,2 51106  53.2174 312.2217 0001679  45.8479 314.2650 15.08837855 34395,6917.887,95.438,540.913,538.59,0.0
51106.0,STARLINK-3176,PAYLOAD,2022-08-29 14:05:37,15.08837804,0.0001696999999999,53.2174,311.627,45.7097,314.4035,3.662300000000001e-05,2.95e-06,0.0,0 STARLINK-3176,1 51106U 22005C   22241.58723934  .00000295  00000-0  36623-4 0  9994,2 51106  53.2174 311.6270 0001697  45.7097 314.4035 15.08837804 34418,6917.887,95.438,540.9259999999998,538.578,0.0
51106.0,STARLINK-3176,PAYLOAD,2022-08-30 04:24:06,15.08830823,0.0001733999999999,53.217,308.9504,45.0641,315.0492,-0.00010089,-1.893e-05,0.0,0 STARLINK-3176,1 51106U 22005C   22242.18341082 -.00001893  00000-0 -10089-3 0  9995,2 51106  53.2170 308.9504 0001734  45.0641 315.0492 15.08830823 35614,6917.908,95.438,540.9730000000002,538.5740000000002,0.0
51106.0,STARLINK-3176,PAYLOAD,2022-08-30 10:45:39,15.08833115,0.0001725,53.2173,307.7615,44.5752,315.5379,-7.5619e-05,-1.491e-05,0.0,0 STARLINK-3176,1 51106U 22005C   22242.44836956 -.00001491  00000-0 -75619-4 0  9998,2 51106  53.2173 307.7615 0001725  44.5752 315.5379 15.08833115 34541,6917.901,95.438,540.96,538.573,0.0
51106.0,STARLINK-3176,PAYLOAD,2022-08-30 13:56:25,15.08833975,0.0001701,53.2172,307.1667,46.0358,314.0775,-8.228e-05,-1.597e-05,0.0,0 STARLINK-3176,1 51106U 22005C   22242.58084968 -.00001597  00000-0 -82280-4 0  9990,2 51106  53.2172 307.1667 0001701  46.0358 314.0775 15.08833975 34564,6917.899,95.438,540.941,538.587,0.0
51106.0,STARLINK-3176,PAYLOAD,2022-08-31 10:36:26,15.08834609,0.0001754999999999,53.217,303.3008,47.9675,312.1466,4.675e-05,4.56e-06,0.0,0 STARLINK-3176,1 51106U 22005C   22243.44196794  .00000456  00000-0  46750-4 0  9990,2 51106  53.2170 303.3008 0001755  47.9675 312.1466 15.08834609 34695,6917.897,95.438,540.976,538.548,0.0
51106.0,STARLINK-3176,PAYLOAD,2022-08-31 13:47:12,15.08834587,0.0001756,53.2169,302.7061,48.8487,311.2656,5.5909e-05,6.02e-06,0.0,0 STARLINK-3176,1 51106U 22005C   22243.57444826  .00000602  00000-0  55909-4 0  9995,2 51106  53.2169 302.7061 0001756  48.8487 311.2656 15.08834587 34716,6917.897,95.438,540.977,538.547,0.0
51106.0,STARLINK-3176,PAYLOAD,2022-09-01 10:27:12,15.08841795,0.0001798,53.2168,298.8407,45.5665,314.5474,0.00017108,2.436e-05,0.0,0 STARLINK-3176,1 51106U 22005C   22244.43556444  .00002436  00000-0  17108-3 0  9996,2 51106  53.2168 298.8407 0001798  45.5665 314.5474 15.08841795 34849,6917.875,95.437,540.984,538.496,0.0
51106.0,STARLINK-3176,PAYLOAD,2022-09-01 13:37:58,15.08842884,0.0001806,53.2168,298.2459,45.9169,314.1972,0.00017598,2.514e-05,0.0,0 STARLINK-3176,1 51106U 22005C   22244.56804379  .00002514  00000-0  17598-3 0  9993,2 51106  53.2168 298.2459 0001806  45.9169 314.1972 15.08842884 35977,6917.871999999999,95.437,540.986,538.487,0.0
51106.0,STARLINK-3176,PAYLOAD,2022-09-02 05:31:51,15.08834553,0.0001803,53.2165,295.2722,46.4886,313.6256,1.2917e-05,-8.3e-07,0.0,0 STARLINK-3176,1 51106U 22005C   22245.23045321 -.00000083  00000-0  12917-4 0  9993,2 51106  53.2165 295.2722 0001803  46.4886 313.6256 15.08834553 36078,6917.897,95.438,541.009,538.515,0.0
51106.0,STARLINK-3176,PAYLOAD,2022-09-02 13:28:46,15.08835898,0.0001757,53.2165,293.7851,47.4844,312.6297,2.0888e-05,4.4e-07,0.0,0 STARLINK-3176,1 51106U 22005C   22245.56165263  .00000044  00000-0  20888-4 0  9999,2 51106  53.2165 293.7851 0001757  47.4844 312.6297 15.08835898 35017,6917.893,95.438,540.9730000000002,538.5419999999998,0.0
51106.0,STARLINK-3176,PAYLOAD,2022-09-02 19:50:19,15.088382,0.0001776999999999,53.2165,292.5959,46.1186,313.9953,8.9333e-06,-1.46e-06,0.0,0 STARLINK-3176,1 51106U 22005C   22245.82661059 -.00000146  00000-0  89333-5 0  9997,2 51106  53.2165 292.5959 0001777  46.1186 313.9953 15.08838200 35057,6917.886,95.438,540.98,538.5219999999998,0.0
51106.0,STARLINK-3176,PAYLOAD,2022-09-03 03:47:14,15.08843344,0.0001789,53.2163,291.1088,46.2406,313.8734,3.072e-06,-2.39e-06,0.0,0 STARLINK-3176,1 51106U 22005C   22246.15780724 -.00000239  00000-0  30720-5 0  9994,2 51106  53.2163 291.1088 0001789  46.2406 313.8734 15.08843344 36212,6917.87,95.437,540.9730000000002,538.498,0.0
51106.0,STARLINK-3176,PAYLOAD,2022-09-03 13:19:33,15.08846379,0.0001841999999999,53.2162,289.3248,45.4094,314.7048,3.4251e-05,2.57e-06,0.0,0 STARLINK-3176,1 51106U 22005C   22246.55524429  .00000257  00000-0  34251-4 0  9997,2 51106  53.2162 289.3248 0001842  45.4094 314.7048 15.08846379 35164,6917.861,95.437,541.0,538.452,0.0
51106.0,STARLINK-3176,PAYLOAD,2022-09-03 19:41:05,15.08850428,0.0001831999999999,53.2162,288.1353,44.1607,315.9531,3.2803000000000004e-05,2.34e-06,0.0,0 STARLINK-3176,1 51106U 22005C   22246.82020032  .00000234  00000-0  32803-4 0  9994,2 51106  53.2162 288.1353 0001832  44.1607 315.9531 15.08850428 35208,6917.849,95.437,540.981,538.446,0.0
51106.0,STARLINK-3176,PAYLOAD,2022-09-04 11:34:57,15.08836441,0.0001805,53.216,285.1613,43.3078,316.8056,5.7983e-05,6.35e-06,0.0,0 STARLINK-3176,1 51106U 22005C   22247.48260757  .00000635  00000-0  57983-4 0  9998,2 51106  53.2160 285.1613 0001805  43.3078 316.8056 15.08836441 35307,6917.891,95.438,541.005,538.508,0.0
51106.0,STARLINK-3176,PAYLOAD,2022-09-04 13:10:20,15.08837072,0.0001804,53.216,284.8638,43.5861,316.5273,6.0761e-05,6.79e-06,0.0,0 STARLINK-3176,1 51106U 22005C   22247.54884708  .00000679  00000-0  60761-4 0  9999,2 51106  53.2160 284.8638 0001804  43.5861 316.5273 15.08837072 35311,6917.889,95.438,541.002,538.506,0.0
51106.0,STARLINK-3176,PAYLOAD,2022-09-05 03:28:47,15.08848285,0.0001869,53.216,282.1875,42.0366,318.077,9.9931e-05,1.303e-05,0.0,0 STARLINK-3176,1 51106U 22005C   22248.14499768  .00001303  00000-0  99931-4 0  9990,2 51106  53.2160 282.1875 0001869  42.0366 318.0770 15.08848285 36510,6917.855,95.437,541.013,538.427,0.0
51106.0,STARLINK-3176,PAYLOAD,2022-09-05 11:25:43,15.08851756,0.0001803,53.2164,280.7008,54.7592,305.3569,-9.837e-05,-1.854e-05,0.0,0 STARLINK-3176,1 51106U 22005C   22248.47620004 -.00001854  00000-0 -98370-4 0  9994,2 51106  53.2164 280.7008 0001803  54.7592 305.3569 15.08851756 35459,6917.844,95.437,540.957,538.462,0.0
51106.0,STARLINK-3176,PAYLOAD,2022-09-06 03:19:35,15.08836646,0.0001837,53.2167,277.7266,43.575,316.5387,-5.518100000000001e-05,-1.166e-05,0.0,0 STARLINK-3176,1 51106U 22005C   22249.13860718 -.00001166  00000-0 -55181-4 0  9995,2 51106  53.2167 277.7266 0001837  43.5750 316.5387 15.08836646 36660,6917.891,95.438,541.026,538.485,0.0
51106.0,STARLINK-3176,PAYLOAD,2022-09-06 11:16:31,15.08831326,0.000194,53.2166,276.2399,42.2194,317.8947,-1.2957e-05,-4.94e-06,0.0,0 STARLINK-3176,1 51106U 22005C   22249.46981103 -.00000494  00000-0 -12957-4 0  9990,2 51106  53.2166 276.2399 0001940  42.2194 317.8947 15.08831326 35602,6917.906999999997,95.438,541.114,538.43,0.0
